0 FENGYUN 1C DEB
1 32204U 99025CVA 13283.02032586  .00008836  00000-0  45112-2 0  5210
2 32204 099.3297 001.0326 0187964 014.7115 106.7394 14.07164845316648
0 FENGYUN 1C DEB
1 32204U 99025CVA 13286.07682010  .00007693  00000-0  39294-2 0  5237
2 32204 099.3307 004.1884 0187833 006.1595 110.6367 14.07206998317073
0 FENGYUN 1C DEB
1 32204U 99025CVA 13287.41666787  .00008057  00000-0  41132-2 0  5249
2 32204 099.3312 005.5718 0187730 002.4032 058.3240 14.07223044317261
0 FENGYUN 1C DEB
1 32204U 99025CVA 13289.47743177  .00010051  00000-0  51205-2 0  5256
2 32204 099.3311 007.7000 0187653 356.6476 058.3780 14.07263644317559
0 FENGYUN 1C DEB
1 32204U 99025CVA 13290.46192806  .00008839  00000-0  44895-2 0  5263
2 32204 099.3298 008.7156 0187529 353.9166 006.0202 14.07281370317694
0 FENGYUN 1C DEB
1 32204U 99025CVA 13291.05457355  .00009553  00000-0  48667-2 0  5267
2 32204 099.3307 009.3289 0187587 352.2003 128.5771 14.07290469317774
0 FENGYUN 1C DEB
1 32204U 99025CVA 13292.46493149  .00009251  00000-0  47120-2 0  5273
2 32204 099.3302 010.7856 0187536 348.2301 073.9307 14.07312878317974
0 FENGYUN 1C DEB
1 32204U 99025CVA 13295.03605444  .00010670  00000-0  54275-2 0  5289
2 32204 099.3288 013.4408 0187355 341.0104 140.3986 14.07353303318332
